{"type": "FeatureCollection", "features": [ {"type": "Feature", "properties": {"norad_id": 62339, "name": "GPS BIII-7  (PRN 01)", "group": "gps-ops", "lat": 37.7034088008399, "lon": 14.66071877042728, "alt_km": 20163.15542530653, "timestamp": "2025-12-11T22:43:47.527490+00:00", "meta": {"OBJECT_NAME": "GPS BIII-7  (PRN 01)", "OBJECT_ID": "2024-242A", "EPOCH": "2025-12-10T14:03:42.090048", "MEAN_MOTION": 2.00567746, "ECCENTRICITY": 0.0012131, "INCLINATION": 54.9242, "RA_OF_ASC_NODE": 341.8267, "ARG_OF_PERICENTER": 344.331, "MEAN_ANOMALY": 161.0631, "EPHEMERIS_TYPE": 0, "CLASSIFICATION_TYPE": "U", "NORAD_CAT_ID": 62339, "ELEMENT_SET_NO": 999, "REV_AT_EPOCH": 747, "BSTAR": 0, "MEAN_MOTION_DOT": -9e-07, "MEAN_MOTION_DDOT": 0}, "tle": {"line1": "1 62339U 24242A   25344.58590382 -.00000090  00000+0  00000+0 0  9993", "line2": "2 62339  54.9242 341.8267 0012131 344.3310 161.0631  2.00567746  7471"}}, "geometry": {"type": "Point", "coordinates": [14.66071877042728, 37.7034088008399]}}, {"type": "Feature", "properties": {"norad_id": 64202, "name": "GPS BIII-8  (PRN 21)", "group": "gps-ops", "lat": -43.89191105890316, "lon": -99.17771264159465, "alt_km": 20182.772258752702, "timestamp": "2025-12-11T22:43:47.527503+00:00", "meta": {"OBJECT_NAME": "GPS BIII-8  (PRN 21)", "OBJECT_ID": "2025-116A", "EPOCH": "2025-12-11T15:10:15.119616", "MEAN_MOTION": 2.00558341, "ECCENTRICITY": 0.00055101, "INCLINATION": 55.105, "RA_OF_ASC_NODE": 38.6853, "ARG_OF_PERICENTER": 307.7864, "MEAN_ANOMALY": 62.5671, "EPHEMERIS_TYPE": 0, "CLASSIFICATION_TYPE": "U", "NORAD_CAT_ID": 64202, "ELEMENT_SET_NO": 999, "REV_AT_EPOCH": 411, "BSTAR": 0, "MEAN_MOTION_DOT": -9.6e-07, "MEAN_MOTION_DDOT": 0}, "tle": {"line1": "1 64202U 25116A   25345.63211944 -.00000096  00000+0  00000+0 0  9992", "line2": "2 64202  55.1050  38.6853 0005510 307.7864  62.5671  2.00558341  4112"}}, "geometry": {"type": "Point", "coordinates": [-99.17771264159465, -43.89191105890316]}}]}